{
"type": "FeatureCollection",
"name": "c_test03",
"crs": { "type": "name", "properties": { "name": "urn:ogc:def:crs:OGC:1.3:CRS84" } },
"features": [
{ "type": "Feature", "properties": { "ISO_A2": "ID", "ISO_A3": "IDN", "CONTINENT": "Asia", "REGION_UN": "Asia", "SUBREGION": "South-Eastern Asia", "NAME_EN": "Indonesia" }, "geometry": { "type": "Point", "coordinates": [ 117.270433339027591, -2.222961002501491 ] } },
{ "type": "Feature", "properties": { "ISO_A2": "MY", "ISO_A3": "MYS", "CONTINENT": "Asia", "REGION_UN": "Asia", "SUBREGION": "South-Eastern Asia", "NAME_EN": "Malaysia" }, "geometry": { "type": "Point", "coordinates": [ 109.698868442151678, 3.792392850960062 ] } },
{ "type": "Feature", "properties": { "ISO_A2": "CL", "ISO_A3": "CHL", "CONTINENT": "South America", "REGION_UN": "Americas", "SUBREGION": "South America", "NAME_EN": "Chile" }, "geometry": { "type": "Point", "coordinates": [ -71.364374638001337, -37.743605617486708 ] } },
{ "type": "Feature", "properties": { "ISO_A2": "BO", "ISO_A3": "BOL", "CONTINENT": "South America", "REGION_UN": "Americas", "SUBREGION": "South America", "NAME_EN": "Bolivia" }, "geometry": { "type": "Point", "coordinates": [ -64.684753728743232, -16.706876810521997 ] } },
{ "type": "Feature", "properties": { "ISO_A2": "PE", "ISO_A3": "PER", "CONTINENT": "South America", "REGION_UN": "Americas", "SUBREGION": "South America", "NAME_EN": "Peru" }, "geometry": { "type": "Point", "coordinates": [ -74.37806457209274, -9.154388480812322 ] } },
{ "type": "Feature", "properties": { "ISO_A2": "AR", "ISO_A3": "ARG", "CONTINENT": "South America", "REGION_UN": "Americas", "SUBREGION": "South America", "NAME_EN": "Argentina" }, "geometry": { "type": "Point", "coordinates": [ -65.178190642619867, -35.387551364795904 ] } },
{ "type": "Feature", "properties": { "ISO_A2": "CY", "ISO_A3": "CYP", "CONTINENT": "Asia", "REGION_UN": "Asia", "SUBREGION": "Western Asia", "NAME_EN": "Cyprus" }, "geometry": { "type": "Point", "coordinates": [ 33.22710169078438, 35.048041948262863 ] } },
{ "type": "Feature", "properties": { "ISO_A2": "IN", "ISO_A3": "IND", "CONTINENT": "Asia", "REGION_UN": "Asia", "SUBREGION": "Southern Asia", "NAME_EN": "India" }, "geometry": { "type": "Point", "coordinates": [ 79.268227242529321, 22.769267557649851 ] } },
{ "type": "Feature", "properties": { "ISO_A2": "CN", "ISO_A3": "CHN", "CONTINENT": "Asia", "REGION_UN": "Asia", "SUBREGION": "Eastern Asia", "NAME_EN": "People's Republic of China" }, "geometry": { "type": "Point", "coordinates": [ 103.966214698107351, 36.521696886285838 ] } },
{ "type": "Feature", "properties": { "ISO_A2": "IL", "ISO_A3": "ISR", "CONTINENT": "Asia", "REGION_UN": "Asia", "SUBREGION": "Western Asia", "NAME_EN": "Israel" }, "geometry": { "type": "Point", "coordinates": [ 34.949801723270909, 31.344655084900324 ] } },
{ "type": "Feature", "properties": { "ISO_A2": "PS", "ISO_A3": "PSE", "CONTINENT": "Asia", "REGION_UN": "Asia", "SUBREGION": "Western Asia", "NAME_EN": "Palestine" }, "geometry": { "type": "Point", "coordinates": [ 35.197812362696368, 31.916083378105029 ] } },
{ "type": "Feature", "properties": { "ISO_A2": "LB", "ISO_A3": "LBN", "CONTINENT": "Asia", "REGION_UN": "Asia", "SUBREGION": "Western Asia", "NAME_EN": "Lebanon" }, "geometry": { "type": "Point", "coordinates": [ 35.8799365603507, 33.920359328335991 ] } },
{ "type": "Feature", "properties": { "ISO_A2": "ET", "ISO_A3": "ETH", "CONTINENT": "Africa", "REGION_UN": "Africa", "SUBREGION": "Eastern Africa", "NAME_EN": "Ethiopia" }, "geometry": { "type": "Point", "coordinates": [ 39.60055103485427, 8.622951736496386 ] } },
{ "type": "Feature", "properties": { "ISO_A2": "SS", "ISO_A3": "SSD", "CONTINENT": "Africa", "REGION_UN": "Africa", "SUBREGION": "Eastern Africa", "NAME_EN": "South Sudan" }, "geometry": { "type": "Point", "coordinates": [ 30.326880430024779, 7.270056731620081 ] } },
{ "type": "Feature", "properties": { "ISO_A2": "SO", "ISO_A3": "SOM", "CONTINENT": "Africa", "REGION_UN": "Africa", "SUBREGION": "Eastern Africa", "NAME_EN": "Somalia" }, "geometry": { "type": "Point", "coordinates": [ 45.850831455622519, 6.062651586020416 ] } },
{ "type": "Feature", "properties": { "ISO_A2": "KE", "ISO_A3": "KEN", "CONTINENT": "Africa", "REGION_UN": "Africa", "SUBREGION": "Eastern Africa", "NAME_EN": "Kenya" }, "geometry": { "type": "Point", "coordinates": [ 37.838149868514918, 0.526242979556736 ] } },
{ "type": "Feature", "properties": { "ISO_A2": "PK", "ISO_A3": "PAK", "CONTINENT": "Asia", "REGION_UN": "Asia", "SUBREGION": "Southern Asia", "NAME_EN": "Pakistan" }, "geometry": { "type": "Point", "coordinates": [ 69.341343105680835, 29.948496826018939 ] } },
{ "type": "Feature", "properties": { "ISO_A2": "MW", "ISO_A3": "MWI", "CONTINENT": "Africa", "REGION_UN": "Africa", "SUBREGION": "Eastern Africa", "NAME_EN": "Malawi" }, "geometry": { "type": "Point", "coordinates": [ 34.289907803412262, -13.21722586459299 ] } },
{ "type": "Feature", "properties": { "ISO_A2": "TZ", "ISO_A3": "TZA", "CONTINENT": "Africa", "REGION_UN": "Africa", "SUBREGION": "Eastern Africa", "NAME_EN": "Tanzania" }, "geometry": { "type": "Point", "coordinates": [ 34.813586420553023, -6.275097481139542 ] } },
{ "type": "Feature", "properties": { "ISO_A2": "SY", "ISO_A3": "SYR", "CONTINENT": "Asia", "REGION_UN": "Asia", "SUBREGION": "Western Asia", "NAME_EN": "Syria" }, "geometry": { "type": "Point", "coordinates": [ 38.48594237742553, 35.009516659930505 ] } },
{ "type": "Feature", "properties": { "ISO_A2": "-99", "ISO_A3": "-99", "CONTINENT": "Europe", "REGION_UN": "Europe", "SUBREGION": "Western Europe", "NAME_EN": "France" }, "geometry": { "type": "Point", "coordinates": [ -2.755221189589065, 42.180106980571374 ] } },
{ "type": "Feature", "properties": { "ISO_A2": "SR", "ISO_A3": "SUR", "CONTINENT": "South America", "REGION_UN": "Americas", "SUBREGION": "South America", "NAME_EN": "Suriname" }, "geometry": { "type": "Point", "coordinates": [ -55.911071360780817, 4.131244979097914 ] } },
{ "type": "Feature", "properties": { "ISO_A2": "GY", "ISO_A3": "GUY", "CONTINENT": "South America", "REGION_UN": "Americas", "SUBREGION": "South America", "NAME_EN": "Guyana" }, "geometry": { "type": "Point", "coordinates": [ -58.980114652766616, 4.793461869382684 ] } },
{ "type": "Feature", "properties": { "ISO_A2": "KR", "ISO_A3": "KOR", "CONTINENT": "Asia", "REGION_UN": "Asia", "SUBREGION": "Eastern Asia", "NAME_EN": "South Korea" }, "geometry": { "type": "Point", "coordinates": [ 127.819093966653782, 36.373353545767067 ] } },
{ "type": "Feature", "properties": { "ISO_A2": "KP", "ISO_A3": "PRK", "CONTINENT": "Asia", "REGION_UN": "Asia", "SUBREGION": "Eastern Asia", "NAME_EN": "North Korea" }, "geometry": { "type": "Point", "coordinates": [ 127.183777778984279, 40.150642744667572 ] } },
{ "type": "Feature", "properties": { "ISO_A2": "MA", "ISO_A3": "MAR", "CONTINENT": "Africa", "REGION_UN": "Africa", "SUBREGION": "Northern Africa", "NAME_EN": "Morocco" }, "geometry": { "type": "Point", "coordinates": [ -6.293469447851971, 31.843002405391005 ] } },
{ "type": "Feature", "properties": { "ISO_A2": "CR", "ISO_A3": "CRI", "CONTINENT": "North America", "REGION_UN": "Americas", "SUBREGION": "Central America", "NAME_EN": "Costa Rica" }, "geometry": { "type": "Point", "coordinates": [ -84.193597560034505, 9.973309520255924 ] } },
{ "type": "Feature", "properties": { "ISO_A2": "NI", "ISO_A3": "NIC", "CONTINENT": "North America", "REGION_UN": "Americas", "SUBREGION": "Central America", "NAME_EN": "Nicaragua" }, "geometry": { "type": "Point", "coordinates": [ -85.033338372385245, 12.845392598395529 ] } },
{ "type": "Feature", "properties": { "ISO_A2": "CG", "ISO_A3": "COG", "CONTINENT": "Africa", "REGION_UN": "Africa", "SUBREGION": "Middle Africa", "NAME_EN": "Republic of the Congo" }, "geometry": { "type": "Point", "coordinates": [ 15.218336155892448, -0.838879989114628 ] } },
{ "type": "Feature", "properties": { "ISO_A2": "CD", "ISO_A3": "COD", "CONTINENT": "Africa", "REGION_UN": "Africa", "SUBREGION": "Middle Africa", "NAME_EN": "Democratic Republic of the Congo" }, "geometry": { "type": "Point", "coordinates": [ 23.645113654235281, -2.879799873232061 ] } },
{ "type": "Feature", "properties": { "ISO_A2": "BT", "ISO_A3": "BTN", "CONTINENT": "Asia", "REGION_UN": "Asia", "SUBREGION": "Southern Asia", "NAME_EN": "Bhutan" }, "geometry": { "type": "Point", "coordinates": [ 90.404460200172693, 27.421756561565442 ] } },
{ "type": "Feature", "properties": { "ISO_A2": "UA", "ISO_A3": "UKR", "CONTINENT": "Europe", "REGION_UN": "Europe", "SUBREGION": "Eastern Europe", "NAME_EN": "Ukraine" }, "geometry": { "type": "Point", "coordinates": [ 31.385747555824555, 48.997369064244573 ] } },
{ "type": "Feature", "properties": { "ISO_A2": "BY", "ISO_A3": "BLR", "CONTINENT": "Europe", "REGION_UN": "Europe", "SUBREGION": "Eastern Europe", "NAME_EN": "Belarus" }, "geometry": { "type": "Point", "coordinates": [ 28.033566394923341, 53.531880478320424 ] } },
{ "type": "Feature", "properties": { "ISO_A2": "NA", "ISO_A3": "NAM", "CONTINENT": "Africa", "REGION_UN": "Africa", "SUBREGION": "Southern Africa", "NAME_EN": "Namibia" }, "geometry": { "type": "Point", "coordinates": [ 17.211133197441097, -22.129246638634957 ] } },
{ "type": "Feature", "properties": { "ISO_A2": "ZA", "ISO_A3": "ZAF", "CONTINENT": "Africa", "REGION_UN": "Africa", "SUBREGION": "Southern Africa", "NAME_EN": "South Africa" }, "geometry": { "type": "Point", "coordinates": [ 25.08736443525796, -29.001032178246838 ] } },
{ "type": "Feature", "properties": { "ISO_A2": "MF", "ISO_A3": "MAF", "CONTINENT": "North America", "REGION_UN": "Americas", "SUBREGION": "Caribbean", "NAME_EN": "Saint Martin" }, "geometry": { "type": "Point", "coordinates": [ -63.05507063091148, 18.077620618844783 ] } },
{ "type": "Feature", "properties": { "ISO_A2": "SX", "ISO_A3": "SXM", "CONTINENT": "North America", "REGION_UN": "Americas", "SUBREGION": "Caribbean", "NAME_EN": "Sint Maarten" }, "geometry": { "type": "Point", "coordinates": [ -63.070132700345837, 18.040630483660035 ] } },
{ "type": "Feature", "properties": { "ISO_A2": "OM", "ISO_A3": "OMN", "CONTINENT": "Asia", "REGION_UN": "Asia", "SUBREGION": "Western Asia", "NAME_EN": "Oman" }, "geometry": { "type": "Point", "coordinates": [ 56.092656542524445, 20.601805654196799 ] } },
{ "type": "Feature", "properties": { "ISO_A2": "UZ", "ISO_A3": "UZB", "CONTINENT": "Asia", "REGION_UN": "Asia", "SUBREGION": "Central Asia", "NAME_EN": "Uzbekistan" }, "geometry": { "type": "Point", "coordinates": [ 63.139908890637848, 41.75603586884214 ] } },
{ "type": "Feature", "properties": { "ISO_A2": "KZ", "ISO_A3": "KAZ", "CONTINENT": "Asia", "REGION_UN": "Asia", "SUBREGION": "Central Asia", "NAME_EN": "Kazakhstan" }, "geometry": { "type": "Point", "coordinates": [ 67.28699932413214, 48.155650633339462 ] } },
{ "type": "Feature", "properties": { "ISO_A2": "TJ", "ISO_A3": "TJK", "CONTINENT": "Asia", "REGION_UN": "Asia", "SUBREGION": "Central Asia", "NAME_EN": "Tajikistan" }, "geometry": { "type": "Point", "coordinates": [ 71.015834236856165, 38.529885647020933 ] } },
{ "type": "Feature", "properties": { "ISO_A2": "LT", "ISO_A3": "LTU", "CONTINENT": "Europe", "REGION_UN": "Europe", "SUBREGION": "Northern Europe", "NAME_EN": "Lithuania" }, "geometry": { "type": "Point", "coordinates": [ 23.888249015753129, 55.327023641183359 ] } },
{ "type": "Feature", "properties": { "ISO_A2": "BR", "ISO_A3": "BRA", "CONTINENT": "South America", "REGION_UN": "Americas", "SUBREGION": "South America", "NAME_EN": "Brazil" }, "geometry": { "type": "Point", "coordinates": [ -53.092482350700884, -10.780858850920129 ] } },
{ "type": "Feature", "properties": { "ISO_A2": "UY", "ISO_A3": "URY", "CONTINENT": "South America", "REGION_UN": "Americas", "SUBREGION": "South America", "NAME_EN": "Uruguay" }, "geometry": { "type": "Point", "coordinates": [ -56.017155095424442, -32.798210749076212 ] } },
{ "type": "Feature", "properties": { "ISO_A2": "MN", "ISO_A3": "MNG", "CONTINENT": "Asia", "REGION_UN": "Asia", "SUBREGION": "Eastern Asia", "NAME_EN": "Mongolia" }, "geometry": { "type": "Point", "coordinates": [ 103.056286662059691, 46.825806066013527 ] } },
{ "type": "Feature", "properties": { "ISO_A2": "RU", "ISO_A3": "RUS", "CONTINENT": "Europe", "REGION_UN": "Europe", "SUBREGION": "Eastern Europe", "NAME_EN": "Russia" }, "geometry": { "type": "Point", "coordinates": [ 96.684103205523101, 61.987864223959718 ] } },
{ "type": "Feature", "properties": { "ISO_A2": "CZ", "ISO_A3": "CZE", "CONTINENT": "Europe", "REGION_UN": "Europe", "SUBREGION": "Eastern Europe", "NAME_EN": "Czech Republic" }, "geometry": { "type": "Point", "coordinates": [ 15.314103103220322, 49.732448205516462 ] } },
{ "type": "Feature", "properties": { "ISO_A2": "DE", "ISO_A3": "DEU", "CONTINENT": "Europe", "REGION_UN": "Europe", "SUBREGION": "Western Europe", "NAME_EN": "Germany" }, "geometry": { "type": "Point", "coordinates": [ 10.38149384344762, 51.106363486336136 ] } },
{ "type": "Feature", "properties": { "ISO_A2": "EE", "ISO_A3": "EST", "CONTINENT": "Europe", "REGION_UN": "Europe", "SUBREGION": "Northern Europe", "NAME_EN": "Estonia" }, "geometry": { "type": "Point", "coordinates": [ 25.5357932074836, 58.671014150381154 ] } },
{ "type": "Feature", "properties": { "ISO_A2": "LV", "ISO_A3": "LVA", "CONTINENT": "Europe", "REGION_UN": "Europe", "SUBREGION": "Northern Europe", "NAME_EN": "Latvia" }, "geometry": { "type": "Point", "coordinates": [ 24.908622427462568, 56.85181947961555 ] } },
{ "type": "Feature", "properties": { "ISO_A2": "-99", "ISO_A3": "-99", "CONTINENT": "Europe", "REGION_UN": "Europe", "SUBREGION": "Northern Europe", "NAME_EN": "Norway" }, "geometry": { "type": "Point", "coordinates": [ 15.409599158694792, 68.794272921987087 ] } },
{ "type": "Feature", "properties": { "ISO_A2": "SE", "ISO_A3": "SWE", "CONTINENT": "Europe", "REGION_UN": "Europe", "SUBREGION": "Northern Europe", "NAME_EN": "Sweden" }, "geometry": { "type": "Point", "coordinates": [ 16.754466433969782, 62.777099864875204 ] } },
{ "type": "Feature", "properties": { "ISO_A2": "FI", "ISO_A3": "FIN", "CONTINENT": "Europe", "REGION_UN": "Europe", "SUBREGION": "Northern Europe", "NAME_EN": "Finland" }, "geometry": { "type": "Point", "coordinates": [ 26.255611843543559, 64.484832707712172 ] } },
{ "type": "Feature", "properties": { "ISO_A2": "VN", "ISO_A3": "VNM", "CONTINENT": "Asia", "REGION_UN": "Asia", "SUBREGION": "South-Eastern Asia", "NAME_EN": "Vietnam" }, "geometry": { "type": "Point", "coordinates": [ 106.300935236538052, 16.642182843719425 ] } },
{ "type": "Feature", "properties": { "ISO_A2": "KH", "ISO_A3": "KHM", "CONTINENT": "Asia", "REGION_UN": "Asia", "SUBREGION": "South-Eastern Asia", "NAME_EN": "Cambodia" }, "geometry": { "type": "Point", "coordinates": [ 104.902804215116163, 12.715562475454433 ] } },
{ "type": "Feature", "properties": { "ISO_A2": "LU", "ISO_A3": "LUX", "CONTINENT": "Europe", "REGION_UN": "Europe", "SUBREGION": "Western Europe", "NAME_EN": "Luxembourg" }, "geometry": { "type": "Point", "coordinates": [ 6.071763967258437, 49.766824275769252 ] } },
{ "type": "Feature", "properties": { "ISO_A2": "AE", "ISO_A3": "ARE", "CONTINENT": "Asia", "REGION_UN": "Asia", "SUBREGION": "Western Asia", "NAME_EN": "United Arab Emirates" }, "geometry": { "type": "Point", "coordinates": [ 54.300795602953592, 23.905783055534314 ] } },
{ "type": "Feature", "properties": { "ISO_A2": "BE", "ISO_A3": "BEL", "CONTINENT": "Europe", "REGION_UN": "Europe", "SUBREGION": "Western Europe", "NAME_EN": "Belgium" }, "geometry": { "type": "Point", "coordinates": [ 4.639960507622136, 50.637461635348686 ] } },
{ "type": "Feature", "properties": { "ISO_A2": "GE", "ISO_A3": "GEO", "CONTINENT": "Asia", "REGION_UN": "Asia", "SUBREGION": "Western Asia", "NAME_EN": "Georgia" }, "geometry": { "type": "Point", "coordinates": [ 43.50752633168559, 42.168800776701396 ] } },
{ "type": "Feature", "properties": { "ISO_A2": "MK", "ISO_A3": "MKD", "CONTINENT": "Europe", "REGION_UN": "Europe", "SUBREGION": "Southern Europe", "NAME_EN": "Republic of Macedonia" }, "geometry": { "type": "Point", "coordinates": [ 21.683830410055034, 41.59500492670378 ] } },
{ "type": "Feature", "properties": { "ISO_A2": "AL", "ISO_A3": "ALB", "CONTINENT": "Europe", "REGION_UN": "Europe", "SUBREGION": "Southern Europe", "NAME_EN": "Albania" }, "geometry": { "type": "Point", "coordinates": [ 20.053819197043477, 41.142482060397207 ] } },
{ "type": "Feature", "properties": { "ISO_A2": "AZ", "ISO_A3": "AZE", "CONTINENT": "Asia", "REGION_UN": "Asia", "SUBREGION": "Western Asia", "NAME_EN": "Azerbaijan" }, "geometry": { "type": "Point", "coordinates": [ 47.54211124799339, 40.289119040074375 ] } },
{ "type": "Feature", "properties": { "ISO_A2": "XK", "ISO_A3": "-99", "CONTINENT": "Europe", "REGION_UN": "Europe", "SUBREGION": "Southern Europe", "NAME_EN": "Kosovo" }, "geometry": { "type": "Point", "coordinates": [ 20.873743193515953, 42.572883385310242 ] } },
{ "type": "Feature", "properties": { "ISO_A2": "TR", "ISO_A3": "TUR", "CONTINENT": "Asia", "REGION_UN": "Asia", "SUBREGION": "Western Asia", "NAME_EN": "Turkey" }, "geometry": { "type": "Point", "coordinates": [ 35.167239393200617, 39.061080615728471 ] } },
{ "type": "Feature", "properties": { "ISO_A2": "ES", "ISO_A3": "ESP", "CONTINENT": "Europe", "REGION_UN": "Europe", "SUBREGION": "Southern Europe", "NAME_EN": "Spain" }, "geometry": { "type": "Point", "coordinates": [ -3.652637016985605, 40.227233701379475 ] } },
{ "type": "Feature", "properties": { "ISO_A2": "LA", "ISO_A3": "LAO", "CONTINENT": "Asia", "REGION_UN": "Asia", "SUBREGION": "South-Eastern Asia", "NAME_EN": "Laos" }, "geometry": { "type": "Point", "coordinates": [ 103.737872200403331, 18.502301472818601 ] } },
{ "type": "Feature", "properties": { "ISO_A2": "KG", "ISO_A3": "KGZ", "CONTINENT": "Asia", "REGION_UN": "Asia", "SUBREGION": "Central Asia", "NAME_EN": "Kyrgyzstan" }, "geometry": { "type": "Point", "coordinates": [ 74.541669386824424, 41.46191865950761 ] } },
{ "type": "Feature", "properties": { "ISO_A2": "AM", "ISO_A3": "ARM", "CONTINENT": "Asia", "REGION_UN": "Asia", "SUBREGION": "Western Asia", "NAME_EN": "Armenia" }, "geometry": { "type": "Point", "coordinates": [ 44.932301218095816, 40.288134153940341 ] } },
{ "type": "Feature", "properties": { "ISO_A2": "DK", "ISO_A3": "DNK", "CONTINENT": "Europe", "REGION_UN": "Europe", "SUBREGION": "Northern Europe", "NAME_EN": "Denmark" }, "geometry": { "type": "Point", "coordinates": [ 10.051389702690789, 55.965377456685999 ] } },
{ "type": "Feature", "properties": { "ISO_A2": "LY", "ISO_A3": "LBY", "CONTINENT": "Africa", "REGION_UN": "Africa", "SUBREGION": "Northern Africa", "NAME_EN": "Libya" }, "geometry": { "type": "Point", "coordinates": [ 18.009605121000082, 27.030277975786365 ] } },
{ "type": "Feature", "properties": { "ISO_A2": "TN", "ISO_A3": "TUN", "CONTINENT": "Africa", "REGION_UN": "Africa", "SUBREGION": "Northern Africa", "NAME_EN": "Tunisia" }, "geometry": { "type": "Point", "coordinates": [ 9.554626245575161, 34.119405222889604 ] } },
{ "type": "Feature", "properties": { "ISO_A2": "RO", "ISO_A3": "ROU", "CONTINENT": "Europe", "REGION_UN": "Europe", "SUBREGION": "Eastern Europe", "NAME_EN": "Romania" }, "geometry": { "type": "Point", "coordinates": [ 24.972941855150182, 45.853464097830759 ] } },
{ "type": "Feature", "properties": { "ISO_A2": "HU", "ISO_A3": "HUN", "CONTINENT": "Europe", "REGION_UN": "Europe", "SUBREGION": "Eastern Europe", "NAME_EN": "Hungary" }, "geometry": { "type": "Point", "coordinates": [ 19.39675926727309, 47.163243686577211 ] } },
{ "type": "Feature", "properties": { "ISO_A2": "SK", "ISO_A3": "SVK", "CONTINENT": "Europe", "REGION_UN": "Europe", "SUBREGION": "Eastern Europe", "NAME_EN": "Slovakia" }, "geometry": { "type": "Point", "coordinates": [ 19.480382971222113, 48.704935301706982 ] } },
{ "type": "Feature", "properties": { "ISO_A2": "PL", "ISO_A3": "POL", "CONTINENT": "Europe", "REGION_UN": "Europe", "SUBREGION": "Eastern Europe", "NAME_EN": "Poland" }, "geometry": { "type": "Point", "coordinates": [ 19.394322139755964, 52.124771818877853 ] } },
{ "type": "Feature", "properties": { "ISO_A2": "IE", "ISO_A3": "IRL", "CONTINENT": "Europe", "REGION_UN": "Europe", "SUBREGION": "Northern Europe", "NAME_EN": "Ireland" }, "geometry": { "type": "Point", "coordinates": [ -8.145044672518244, 53.178221372742151 ] } },
{ "type": "Feature", "properties": { "ISO_A2": "GB", "ISO_A3": "GBR", "CONTINENT": "Europe", "REGION_UN": "Europe", "SUBREGION": "Northern Europe", "NAME_EN": "United Kingdom" }, "geometry": { "type": "Point", "coordinates": [ -2.886951519389721, 54.147048188219742 ] } },
{ "type": "Feature", "properties": { "ISO_A2": "GR", "ISO_A3": "GRC", "CONTINENT": "Europe", "REGION_UN": "Europe", "SUBREGION": "Southern Europe", "NAME_EN": "Greece" }, "geometry": { "type": "Point", "coordinates": [ 22.97481892536155, 39.051181182491867 ] } },
{ "type": "Feature", "properties": { "ISO_A2": "ZM", "ISO_A3": "ZMB", "CONTINENT": "Africa", "REGION_UN": "Africa", "SUBREGION": "Eastern Africa", "NAME_EN": "Zambia" }, "geometry": { "type": "Point", "coordinates": [ 27.774212334776749, -13.460110018389672 ] } },
{ "type": "Feature", "properties": { "ISO_A2": "SL", "ISO_A3": "SLE", "CONTINENT": "Africa", "REGION_UN": "Africa", "SUBREGION": "Western Africa", "NAME_EN": "Sierra Leone" }, "geometry": { "type": "Point", "coordinates": [ -11.795015578248879, 8.56308584288359 ] } },
{ "type": "Feature", "properties": { "ISO_A2": "GN", "ISO_A3": "GIN", "CONTINENT": "Africa", "REGION_UN": "Africa", "SUBREGION": "Western Africa", "NAME_EN": "Guinea" }, "geometry": { "type": "Point", "coordinates": [ -10.94306126602511, 10.434649046587257 ] } },
{ "type": "Feature", "properties": { "ISO_A2": "LR", "ISO_A3": "LBR", "CONTINENT": "Africa", "REGION_UN": "Africa", "SUBREGION": "Western Africa", "NAME_EN": "Liberia" }, "geometry": { "type": "Point", "coordinates": [ -9.319863993190323, 6.452232554564466 ] } },
{ "type": "Feature", "properties": { "ISO_A2": "CF", "ISO_A3": "CAF", "CONTINENT": "Africa", "REGION_UN": "Africa", "SUBREGION": "Middle Africa", "NAME_EN": "Central African Republic" }, "geometry": { "type": "Point", "coordinates": [ 20.464809197141058, 6.566321860130002 ] } },
{ "type": "Feature", "properties": { "ISO_A2": "SD", "ISO_A3": "SDN", "CONTINENT": "Africa", "REGION_UN": "Africa", "SUBREGION": "Northern Africa", "NAME_EN": "Sudan" }, "geometry": { "type": "Point", "coordinates": [ 29.948369582723533, 16.022563131779169 ] } },
{ "type": "Feature", "properties": { "ISO_A2": "DJ", "ISO_A3": "DJI", "CONTINENT": "Africa", "REGION_UN": "Africa", "SUBREGION": "Eastern Africa", "NAME_EN": "Djibouti" }, "geometry": { "type": "Point", "coordinates": [ 42.566453652357431, 11.750155875549366 ] } },
{ "type": "Feature", "properties": { "ISO_A2": "ER", "ISO_A3": "ERI", "CONTINENT": "Africa", "REGION_UN": "Africa", "SUBREGION": "Eastern Africa", "NAME_EN": "Eritrea" }, "geometry": { "type": "Point", "coordinates": [ 38.852944444705777, 15.357513732306121 ] } },
{ "type": "Feature", "properties": { "ISO_A2": "AT", "ISO_A3": "AUT", "CONTINENT": "Europe", "REGION_UN": "Europe", "SUBREGION": "Western Europe", "NAME_EN": "Austria" }, "geometry": { "type": "Point", "coordinates": [ 14.130672887393819, 47.585656920521046 ] } },
{ "type": "Feature", "properties": { "ISO_A2": "IQ", "ISO_A3": "IRQ", "CONTINENT": "Asia", "REGION_UN": "Asia", "SUBREGION": "Western Asia", "NAME_EN": "Iraq" }, "geometry": { "type": "Point", "coordinates": [ 43.744977016243546, 33.039803779830201 ] } },
{ "type": "Feature", "properties": { "ISO_A2": "IT", "ISO_A3": "ITA", "CONTINENT": "Europe", "REGION_UN": "Europe", "SUBREGION": "Southern Europe", "NAME_EN": "Italy" }, "geometry": { "type": "Point", "coordinates": [ 12.071907092653525, 42.786433996372416 ] } },
{ "type": "Feature", "properties": { "ISO_A2": "CH", "ISO_A3": "CHE", "CONTINENT": "Europe", "REGION_UN": "Europe", "SUBREGION": "Western Europe", "NAME_EN": "Switzerland" }, "geometry": { "type": "Point", "coordinates": [ 8.215353657407347, 46.798956869792519 ] } },
{ "type": "Feature", "properties": { "ISO_A2": "IR", "ISO_A3": "IRN", "CONTINENT": "Asia", "REGION_UN": "Asia", "SUBREGION": "Southern Asia", "NAME_EN": "Iran" }, "geometry": { "type": "Point", "coordinates": [ 54.276946729165324, 32.570678177910864 ] } },
{ "type": "Feature", "properties": { "ISO_A2": "LI", "ISO_A3": "LIE", "CONTINENT": "Europe", "REGION_UN": "Europe", "SUBREGION": "Western Europe", "NAME_EN": "Liechtenstein" }, "geometry": { "type": "Point", "coordinates": [ 9.540900288446093, 47.138206429707168 ] } },
{ "type": "Feature", "properties": { "ISO_A2": "CI", "ISO_A3": "CIV", "CONTINENT": "Africa", "REGION_UN": "Africa", "SUBREGION": "Western Africa", "NAME_EN": "Ivory Coast" }, "geometry": { "type": "Point", "coordinates": [ -5.569000185962849, 7.627966516566039 ] } },
{ "type": "Feature", "properties": { "ISO_A2": "RS", "ISO_A3": "SRB", "CONTINENT": "Europe", "REGION_UN": "Europe", "SUBREGION": "Southern Europe", "NAME_EN": "Serbia" }, "geometry": { "type": "Point", "coordinates": [ 20.790402471008345, 44.221375921201442 ] } },
{ "type": "Feature", "properties": { "ISO_A2": "ML", "ISO_A3": "MLI", "CONTINENT": "Africa", "REGION_UN": "Africa", "SUBREGION": "Western Africa", "NAME_EN": "Mali" }, "geometry": { "type": "Point", "coordinates": [ -3.53907941200309, 17.344162791019819 ] } },
{ "type": "Feature", "properties": { "ISO_A2": "SN", "ISO_A3": "SEN", "CONTINENT": "Africa", "REGION_UN": "Africa", "SUBREGION": "Western Africa", "NAME_EN": "Senegal" }, "geometry": { "type": "Point", "coordinates": [ -14.471306027706481, 14.367788578886696 ] } },
{ "type": "Feature", "properties": { "ISO_A2": "NG", "ISO_A3": "NGA", "CONTINENT": "Africa", "REGION_UN": "Africa", "SUBREGION": "Western Africa", "NAME_EN": "Nigeria" }, "geometry": { "type": "Point", "coordinates": [ 8.091239276054017, 9.595314826291711 ] } },
{ "type": "Feature", "properties": { "ISO_A2": "BJ", "ISO_A3": "BEN", "CONTINENT": "Africa", "REGION_UN": "Africa", "SUBREGION": "Western Africa", "NAME_EN": "Benin" }, "geometry": { "type": "Point", "coordinates": [ 2.328740730859548, 9.641216685059449 ] } },
{ "type": "Feature", "properties": { "ISO_A2": "AO", "ISO_A3": "AGO", "CONTINENT": "Africa", "REGION_UN": "Africa", "SUBREGION": "Middle Africa", "NAME_EN": "Angola" }, "geometry": { "type": "Point", "coordinates": [ 17.536985012322379, -12.292315690902056 ] } },
{ "type": "Feature", "properties": { "ISO_A2": "HR", "ISO_A3": "HRV", "CONTINENT": "Europe", "REGION_UN": "Europe", "SUBREGION": "Southern Europe", "NAME_EN": "Croatia" }, "geometry": { "type": "Point", "coordinates": [ 16.39854883764005, 45.06772616813489 ] } },
{ "type": "Feature", "properties": { "ISO_A2": "SI", "ISO_A3": "SVN", "CONTINENT": "Europe", "REGION_UN": "Europe", "SUBREGION": "Southern Europe", "NAME_EN": "Slovenia" }, "geometry": { "type": "Point", "coordinates": [ 14.808089624809488, 46.116110984335492 ] } },
{ "type": "Feature", "properties": { "ISO_A2": "QA", "ISO_A3": "QAT", "CONTINENT": "Asia", "REGION_UN": "Asia", "SUBREGION": "Western Asia", "NAME_EN": "Qatar" }, "geometry": { "type": "Point", "coordinates": [ 51.186831293587282, 25.313074594089841 ] } },
{ "type": "Feature", "properties": { "ISO_A2": "SA", "ISO_A3": "SAU", "CONTINENT": "Asia", "REGION_UN": "Asia", "SUBREGION": "Western Asia", "NAME_EN": "Saudi Arabia" }, "geometry": { "type": "Point", "coordinates": [ 44.536863677320618, 24.122327069489224 ] } },
{ "type": "Feature", "properties": { "ISO_A2": "BW", "ISO_A3": "BWA", "CONTINENT": "Africa", "REGION_UN": "Africa", "SUBREGION": "Southern Africa", "NAME_EN": "Botswana" }, "geometry": { "type": "Point", "coordinates": [ 23.798986732819699, -22.185772321030711 ] } },
{ "type": "Feature", "properties": { "ISO_A2": "ZW", "ISO_A3": "ZWE", "CONTINENT": "Africa", "REGION_UN": "Africa", "SUBREGION": "Eastern Africa", "NAME_EN": "Zimbabwe" }, "geometry": { "type": "Point", "coordinates": [ 29.851884620590862, -19.002536709999394 ] } },
{ "type": "Feature", "properties": { "ISO_A2": "BG", "ISO_A3": "BGR", "CONTINENT": "Europe", "REGION_UN": "Europe", "SUBREGION": "Eastern Europe", "NAME_EN": "Bulgaria" }, "geometry": { "type": "Point", "coordinates": [ 25.217512511774576, 42.768522614364514 ] } },
{ "type": "Feature", "properties": { "ISO_A2": "TH", "ISO_A3": "THA", "CONTINENT": "Asia", "REGION_UN": "Asia", "SUBREGION": "South-Eastern Asia", "NAME_EN": "Thailand" }, "geometry": { "type": "Point", "coordinates": [ 101.003333331520651, 15.114399997927574 ] } },
{ "type": "Feature", "properties": { "ISO_A2": "SM", "ISO_A3": "SMR", "CONTINENT": "Europe", "REGION_UN": "Europe", "SUBREGION": "Southern Europe", "NAME_EN": "San Marino" }, "geometry": { "type": "Point", "coordinates": [ 12.442222558734342, 43.936466194473375 ] } },
{ "type": "Feature", "properties": { "ISO_A2": "HT", "ISO_A3": "HTI", "CONTINENT": "North America", "REGION_UN": "Americas", "SUBREGION": "Caribbean", "NAME_EN": "Haiti" }, "geometry": { "type": "Point", "coordinates": [ -72.690874062940338, 18.938371436681368 ] } },
{ "type": "Feature", "properties": { "ISO_A2": "DO", "ISO_A3": "DOM", "CONTINENT": "North America", "REGION_UN": "Americas", "SUBREGION": "Caribbean", "NAME_EN": "Dominican Republic" }, "geometry": { "type": "Point", "coordinates": [ -70.496586538486184, 18.896365870057899 ] } },
{ "type": "Feature", "properties": { "ISO_A2": "TD", "ISO_A3": "TCD", "CONTINENT": "Africa", "REGION_UN": "Africa", "SUBREGION": "Middle Africa", "NAME_EN": "Chad" }, "geometry": { "type": "Point", "coordinates": [ 18.64625111400256, 15.333078105020446 ] } },
{ "type": "Feature", "properties": { "ISO_A2": "KW", "ISO_A3": "KWT", "CONTINENT": "Asia", "REGION_UN": "Asia", "SUBREGION": "Western Asia", "NAME_EN": "Kuwait" }, "geometry": { "type": "Point", "coordinates": [ 47.594623502534347, 29.340042086917592 ] } },
{ "type": "Feature", "properties": { "ISO_A2": "SV", "ISO_A3": "SLV", "CONTINENT": "North America", "REGION_UN": "Americas", "SUBREGION": "Central America", "NAME_EN": "El Salvador" }, "geometry": { "type": "Point", "coordinates": [ -88.871032522076334, 13.735849549193736 ] } },
{ "type": "Feature", "properties": { "ISO_A2": "GT", "ISO_A3": "GTM", "CONTINENT": "North America", "REGION_UN": "Americas", "SUBREGION": "Central America", "NAME_EN": "Guatemala" }, "geometry": { "type": "Point", "coordinates": [ -90.360157458049159, 15.696016481157976 ] } },
{ "type": "Feature", "properties": { "ISO_A2": "TL", "ISO_A3": "TLS", "CONTINENT": "Asia", "REGION_UN": "Asia", "SUBREGION": "South-Eastern Asia", "NAME_EN": "East Timor" }, "geometry": { "type": "Point", "coordinates": [ 125.851075570646415, -8.823778733852327 ] } },
{ "type": "Feature", "properties": { "ISO_A2": "BN", "ISO_A3": "BRN", "CONTINENT": "Asia", "REGION_UN": "Asia", "SUBREGION": "South-Eastern Asia", "NAME_EN": "Brunei" }, "geometry": { "type": "Point", "coordinates": [ 114.727245752220455, 4.516500312636382 ] } },
{ "type": "Feature", "properties": { "ISO_A2": "MC", "ISO_A3": "MCO", "CONTINENT": "Europe", "REGION_UN": "Europe", "SUBREGION": "Western Europe", "NAME_EN": "Monaco" }, "geometry": { "type": "Point", "coordinates": [ 7.398974324916639, 43.739846187536855 ] } },
{ "type": "Feature", "properties": { "ISO_A2": "DZ", "ISO_A3": "DZA", "CONTINENT": "Africa", "REGION_UN": "Africa", "SUBREGION": "Northern Africa", "NAME_EN": "Algeria" }, "geometry": { "type": "Point", "coordinates": [ 2.653091376766941, 28.148889657360826 ] } },
{ "type": "Feature", "properties": { "ISO_A2": "MZ", "ISO_A3": "MOZ", "CONTINENT": "Africa", "REGION_UN": "Africa", "SUBREGION": "Eastern Africa", "NAME_EN": "Mozambique" }, "geometry": { "type": "Point", "coordinates": [ 35.538105532504368, -17.27001002694228 ] } },
{ "type": "Feature", "properties": { "ISO_A2": "SZ", "ISO_A3": "SWZ", "CONTINENT": "Africa", "REGION_UN": "Africa", "SUBREGION": "Southern Africa", "NAME_EN": "eSwatini" }, "geometry": { "type": "Point", "coordinates": [ 31.480024102992822, -26.561914349027312 ] } },
{ "type": "Feature", "properties": { "ISO_A2": "BI", "ISO_A3": "BDI", "CONTINENT": "Africa", "REGION_UN": "Africa", "SUBREGION": "Eastern Africa", "NAME_EN": "Burundi" }, "geometry": { "type": "Point", "coordinates": [ 29.875082694472898, -3.357425336421723 ] } },
{ "type": "Feature", "properties": { "ISO_A2": "RW", "ISO_A3": "RWA", "CONTINENT": "Africa", "REGION_UN": "Africa", "SUBREGION": "Eastern Africa", "NAME_EN": "Rwanda" }, "geometry": { "type": "Point", "coordinates": [ 29.919060704657589, -1.992750527859315 ] } },
{ "type": "Feature", "properties": { "ISO_A2": "MM", "ISO_A3": "MMR", "CONTINENT": "Asia", "REGION_UN": "Asia", "SUBREGION": "South-Eastern Asia", "NAME_EN": "Myanmar" }, "geometry": { "type": "Point", "coordinates": [ 96.4892894071927, 21.167669864556522 ] } },
{ "type": "Feature", "properties": { "ISO_A2": "BD", "ISO_A3": "BGD", "CONTINENT": "Asia", "REGION_UN": "Asia", "SUBREGION": "Southern Asia", "NAME_EN": "Bangladesh" }, "geometry": { "type": "Point", "coordinates": [ 90.242000016362624, 23.845677347627159 ] } },
{ "type": "Feature", "properties": { "ISO_A2": "AD", "ISO_A3": "AND", "CONTINENT": "Europe", "REGION_UN": "Europe", "SUBREGION": "Southern Europe", "NAME_EN": "Andorra" }, "geometry": { "type": "Point", "coordinates": [ 1.560756241046309, 42.541326525073366 ] } },
{ "type": "Feature", "properties": { "ISO_A2": "AF", "ISO_A3": "AFG", "CONTINENT": "Asia", "REGION_UN": "Asia", "SUBREGION": "Southern Asia", "NAME_EN": "Afghanistan" }, "geometry": { "type": "Point", "coordinates": [ 66.008447687212239, 33.836267071958616 ] } },
{ "type": "Feature", "properties": { "ISO_A2": "ME", "ISO_A3": "MNE", "CONTINENT": "Europe", "REGION_UN": "Europe", "SUBREGION": "Southern Europe", "NAME_EN": "Montenegro" }, "geometry": { "type": "Point", "coordinates": [ 19.238500286437251, 42.785818054618467 ] } },
{ "type": "Feature", "properties": { "ISO_A2": "BA", "ISO_A3": "BIH", "CONTINENT": "Europe", "REGION_UN": "Europe", "SUBREGION": "Southern Europe", "NAME_EN": "Bosnia and Herzegovina" }, "geometry": { "type": "Point", "coordinates": [ 17.77340802034626, 44.171734056407146 ] } },
{ "type": "Feature", "properties": { "ISO_A2": "UG", "ISO_A3": "UGA", "CONTINENT": "Africa", "REGION_UN": "Africa", "SUBREGION": "Eastern Africa", "NAME_EN": "Uganda" }, "geometry": { "type": "Point", "coordinates": [ 32.367039852686339, 1.275691192478844 ] } },
{ "type": "Feature", "properties": { "ISO_A2": "-99", "ISO_A3": "-99", "CONTINENT": "North America", "REGION_UN": "Americas", "SUBREGION": "Caribbean", "NAME_EN": "Guantanamo Bay Naval Base" }, "geometry": { "type": "Point", "coordinates": [ -75.154673405659338, 19.929253601426641 ] } },
{ "type": "Feature", "properties": { "ISO_A2": "CU", "ISO_A3": "CUB", "CONTINENT": "North America", "REGION_UN": "Americas", "SUBREGION": "Caribbean", "NAME_EN": "Cuba" }, "geometry": { "type": "Point", "coordinates": [ -79.035211756717587, 21.625298051313358 ] } },
{ "type": "Feature", "properties": { "ISO_A2": "HN", "ISO_A3": "HND", "CONTINENT": "North America", "REGION_UN": "Americas", "SUBREGION": "Central America", "NAME_EN": "Honduras" }, "geometry": { "type": "Point", "coordinates": [ -86.625227455760694, 14.821009419809645 ] } },
{ "type": "Feature", "properties": { "ISO_A2": "EC", "ISO_A3": "ECU", "CONTINENT": "South America", "REGION_UN": "Americas", "SUBREGION": "South America", "NAME_EN": "Ecuador" }, "geometry": { "type": "Point", "coordinates": [ -78.772282311117877, -1.426241473617814 ] } },
{ "type": "Feature", "properties": { "ISO_A2": "CO", "ISO_A3": "COL", "CONTINENT": "South America", "REGION_UN": "Americas", "SUBREGION": "South America", "NAME_EN": "Colombia" }, "geometry": { "type": "Point", "coordinates": [ -73.083842104250039, 3.909413048826267 ] } },
{ "type": "Feature", "properties": { "ISO_A2": "PY", "ISO_A3": "PRY", "CONTINENT": "South America", "REGION_UN": "Americas", "SUBREGION": "South America", "NAME_EN": "Paraguay" }, "geometry": { "type": "Point", "coordinates": [ -58.398422807670194, -23.227518815635779 ] } },
{ "type": "Feature", "properties": { "ISO_A2": "PT", "ISO_A3": "PRT", "CONTINENT": "Europe", "REGION_UN": "Europe", "SUBREGION": "Southern Europe", "NAME_EN": "Portugal" }, "geometry": { "type": "Point", "coordinates": [ -8.590837588607934, 39.587146863969721 ] } },
{ "type": "Feature", "properties": { "ISO_A2": "MD", "ISO_A3": "MDA", "CONTINENT": "Europe", "REGION_UN": "Europe", "SUBREGION": "Eastern Europe", "NAME_EN": "Moldova" }, "geometry": { "type": "Point", "coordinates": [ 28.461397130409622, 47.195101489020892 ] } },
{ "type": "Feature", "properties": { "ISO_A2": "TM", "ISO_A3": "TKM", "CONTINENT": "Asia", "REGION_UN": "Asia", "SUBREGION": "Central Asia", "NAME_EN": "Turkmenistan" }, "geometry": { "type": "Point", "coordinates": [ 59.375960735614569, 39.115933902380988 ] } },
{ "type": "Feature", "properties": { "ISO_A2": "JO", "ISO_A3": "JOR", "CONTINENT": "Asia", "REGION_UN": "Asia", "SUBREGION": "Western Asia", "NAME_EN": "Jordan" }, "geometry": { "type": "Point", "coordinates": [ 36.770921802425555, 31.245574139667692 ] } },
{ "type": "Feature", "properties": { "ISO_A2": "NP", "ISO_A3": "NPL", "CONTINENT": "Asia", "REGION_UN": "Asia", "SUBREGION": "Southern Asia", "NAME_EN": "Nepal" }, "geometry": { "type": "Point", "coordinates": [ 83.916253443209797, 28.247922185210264 ] } },
{ "type": "Feature", "properties": { "ISO_A2": "LS", "ISO_A3": "LSO", "CONTINENT": "Africa", "REGION_UN": "Africa", "SUBREGION": "Southern Africa", "NAME_EN": "Lesotho" }, "geometry": { "type": "Point", "coordinates": [ 28.228622925026674, -29.579730444208881 ] } },
{ "type": "Feature", "properties": { "ISO_A2": "CM", "ISO_A3": "CMR", "CONTINENT": "Africa", "REGION_UN": "Africa", "SUBREGION": "Middle Africa", "NAME_EN": "Cameroon" }, "geometry": { "type": "Point", "coordinates": [ 12.736984165387209, 5.693058205830478 ] } },
{ "type": "Feature", "properties": { "ISO_A2": "GA", "ISO_A3": "GAB", "CONTINENT": "Africa", "REGION_UN": "Africa", "SUBREGION": "Middle Africa", "NAME_EN": "Gabon" }, "geometry": { "type": "Point", "coordinates": [ 11.789569256868569, -0.59165591685829 ] } },
{ "type": "Feature", "properties": { "ISO_A2": "NE", "ISO_A3": "NER", "CONTINENT": "Africa", "REGION_UN": "Africa", "SUBREGION": "Western Africa", "NAME_EN": "Niger" }, "geometry": { "type": "Point", "coordinates": [ 9.38603399667635, 17.418463771018928 ] } },
{ "type": "Feature", "properties": { "ISO_A2": "BF", "ISO_A3": "BFA", "CONTINENT": "Africa", "REGION_UN": "Africa", "SUBREGION": "Western Africa", "NAME_EN": "Burkina Faso" }, "geometry": { "type": "Point", "coordinates": [ -1.75552769525805, 12.269553913823048 ] } },
{ "type": "Feature", "properties": { "ISO_A2": "TG", "ISO_A3": "TGO", "CONTINENT": "Africa", "REGION_UN": "Africa", "SUBREGION": "Western Africa", "NAME_EN": "Togo" }, "geometry": { "type": "Point", "coordinates": [ 0.96227159970274, 8.526788205984779 ] } },
{ "type": "Feature", "properties": { "ISO_A2": "GH", "ISO_A3": "GHA", "CONTINENT": "Africa", "REGION_UN": "Africa", "SUBREGION": "Western Africa", "NAME_EN": "Ghana" }, "geometry": { "type": "Point", "coordinates": [ -1.216523831438899, 7.953954723688792 ] } },
{ "type": "Feature", "properties": { "ISO_A2": "GW", "ISO_A3": "GNB", "CONTINENT": "Africa", "REGION_UN": "Africa", "SUBREGION": "Western Africa", "NAME_EN": "Guinea-Bissau" }, "geometry": { "type": "Point", "coordinates": [ -14.977513754128005, 12.026921903420378 ] } },
{ "type": "Feature", "properties": { "ISO_A2": "GI", "ISO_A3": "GIB", "CONTINENT": "Europe", "REGION_UN": "Europe", "SUBREGION": "Southern Europe", "NAME_EN": "Gibraltar" }, "geometry": { "type": "Point", "coordinates": [ -5.346700323619253, 36.129463670513566 ] } },
{ "type": "Feature", "properties": { "ISO_A2": "US", "ISO_A3": "USA", "CONTINENT": "North America", "REGION_UN": "Americas", "SUBREGION": "Northern America", "NAME_EN": "United States of America" }, "geometry": { "type": "Point", "coordinates": [ -112.495726075063644, 45.688113435800112 ] } },
{ "type": "Feature", "properties": { "ISO_A2": "CA", "ISO_A3": "CAN", "CONTINENT": "North America", "REGION_UN": "Americas", "SUBREGION": "Northern America", "NAME_EN": "Canada" }, "geometry": { "type": "Point", "coordinates": [ -98.293904308450806, 61.376462802585635 ] } },
{ "type": "Feature", "properties": { "ISO_A2": "MX", "ISO_A3": "MEX", "CONTINENT": "North America", "REGION_UN": "Americas", "SUBREGION": "Central America", "NAME_EN": "Mexico" }, "geometry": { "type": "Point", "coordinates": [ -102.530307873519448, 23.949171200313618 ] } },
{ "type": "Feature", "properties": { "ISO_A2": "BZ", "ISO_A3": "BLZ", "CONTINENT": "North America", "REGION_UN": "Americas", "SUBREGION": "Central America", "NAME_EN": "Belize" }, "geometry": { "type": "Point", "coordinates": [ -88.693888531451663, 17.208318691506989 ] } },
{ "type": "Feature", "properties": { "ISO_A2": "PA", "ISO_A3": "PAN", "CONTINENT": "North America", "REGION_UN": "Americas", "SUBREGION": "Central America", "NAME_EN": "Panama" }, "geometry": { "type": "Point", "coordinates": [ -80.1212949507334, 8.514556966463539 ] } },
{ "type": "Feature", "properties": { "ISO_A2": "VE", "ISO_A3": "VEN", "CONTINENT": "South America", "REGION_UN": "Americas", "SUBREGION": "South America", "NAME_EN": "Venezuela" }, "geometry": { "type": "Point", "coordinates": [ -66.168840263037623, 7.127731536977765 ] } },
{ "type": "Feature", "properties": { "ISO_A2": "PG", "ISO_A3": "PNG", "CONTINENT": "Oceania", "REGION_UN": "Oceania", "SUBREGION": "Melanesia", "NAME_EN": "Papua New Guinea" }, "geometry": { "type": "Point", "coordinates": [ 145.231523620698937, -6.470120595719412 ] } },
{ "type": "Feature", "properties": { "ISO_A2": "EG", "ISO_A3": "EGY", "CONTINENT": "Africa", "REGION_UN": "Africa", "SUBREGION": "Northern Africa", "NAME_EN": "Egypt" }, "geometry": { "type": "Point", "coordinates": [ 29.86120870894981, 26.492919626462825 ] } },
{ "type": "Feature", "properties": { "ISO_A2": "YE", "ISO_A3": "YEM", "CONTINENT": "Asia", "REGION_UN": "Asia", "SUBREGION": "Western Asia", "NAME_EN": "Yemen" }, "geometry": { "type": "Point", "coordinates": [ 47.590601932916584, 15.905421285486431 ] } },
{ "type": "Feature", "properties": { "ISO_A2": "MR", "ISO_A3": "MRT", "CONTINENT": "Africa", "REGION_UN": "Africa", "SUBREGION": "Western Africa", "NAME_EN": "Mauritania" }, "geometry": { "type": "Point", "coordinates": [ -10.343397875670528, 20.256218126442075 ] } },
{ "type": "Feature", "properties": { "ISO_A2": "GQ", "ISO_A3": "GNQ", "CONTINENT": "Africa", "REGION_UN": "Africa", "SUBREGION": "Middle Africa", "NAME_EN": "Equatorial Guinea" }, "geometry": { "type": "Point", "coordinates": [ 10.332885460551219, 1.706961040009443 ] } },
{ "type": "Feature", "properties": { "ISO_A2": "GM", "ISO_A3": "GMB", "CONTINENT": "Africa", "REGION_UN": "Africa", "SUBREGION": "Western Africa", "NAME_EN": "The Gambia" }, "geometry": { "type": "Point", "coordinates": [ -15.397582026046253, 13.449729558554955 ] } },
{ "type": "Feature", "properties": { "ISO_A2": "HK", "ISO_A3": "HKG", "CONTINENT": "Asia", "REGION_UN": "Asia", "SUBREGION": "Eastern Asia", "NAME_EN": "Hong Kong" }, "geometry": { "type": "Point", "coordinates": [ 114.131446886885513, 22.384636894165141 ] } },
{ "type": "Feature", "properties": { "ISO_A2": "VA", "ISO_A3": "VAT", "CONTINENT": "Europe", "REGION_UN": "Europe", "SUBREGION": "Southern Europe", "NAME_EN": "Vatican City" }, "geometry": { "type": "Point", "coordinates": [ 12.453417729433649, 41.903312469145497 ] } },
{ "type": "Feature", "properties": { "ISO_A2": "AU", "ISO_A3": "AUS", "CONTINENT": "Oceania", "REGION_UN": "Oceania", "SUBREGION": "Australia and New Zealand", "NAME_EN": "Australia" }, "geometry": { "type": "Point", "coordinates": [ 134.491115327663294, -25.732306243952188 ] } },
{ "type": "Feature", "properties": { "ISO_A2": "GL", "ISO_A3": "GRL", "CONTINENT": "North America", "REGION_UN": "Americas", "SUBREGION": "Northern America", "NAME_EN": "Greenland" }, "geometry": { "type": "Point", "coordinates": [ -41.34573936685149, 74.735990621571517 ] } },
{ "type": "Feature", "properties": { "ISO_A2": "FJ", "ISO_A3": "FJI", "CONTINENT": "Oceania", "REGION_UN": "Oceania", "SUBREGION": "Melanesia", "NAME_EN": "Fiji" }, "geometry": { "type": "Point", "coordinates": [ 163.407847708547962, -17.447561917328919 ] } },
{ "type": "Feature", "properties": { "ISO_A2": "NC", "ISO_A3": "NCL", "CONTINENT": "Oceania", "REGION_UN": "Oceania", "SUBREGION": "Melanesia", "NAME_EN": "New Caledonia" }, "geometry": { "type": "Point", "coordinates": [ 165.702654748621626, -21.304340145251292 ] } },
{ "type": "Feature", "properties": { "ISO_A2": "MG", "ISO_A3": "MDG", "CONTINENT": "Africa", "REGION_UN": "Africa", "SUBREGION": "Eastern Africa", "NAME_EN": "Madagascar" }, "geometry": { "type": "Point", "coordinates": [ 46.705998313382999, -19.373167530013713 ] } },
{ "type": "Feature", "properties": { "ISO_A2": "PH", "ISO_A3": "PHL", "CONTINENT": "Asia", "REGION_UN": "Asia", "SUBREGION": "South-Eastern Asia", "NAME_EN": "Philippines" }, "geometry": { "type": "Point", "coordinates": [ 122.874484260022626, 11.76301505271339 ] } },
{ "type": "Feature", "properties": { "ISO_A2": "LK", "ISO_A3": "LKA", "CONTINENT": "Asia", "REGION_UN": "Asia", "SUBREGION": "Southern Asia", "NAME_EN": "Sri Lanka" }, "geometry": { "type": "Point", "coordinates": [ 80.7031628357675, 7.615914048310181 ] } },
{ "type": "Feature", "properties": { "ISO_A2": "CW", "ISO_A3": "CUW", "CONTINENT": "North America", "REGION_UN": "Americas", "SUBREGION": "Caribbean", "NAME_EN": "Cura√ßao" }, "geometry": { "type": "Point", "coordinates": [ -68.971305607194523, 12.193821089286773 ] } },
{ "type": "Feature", "properties": { "ISO_A2": "AW", "ISO_A3": "ABW", "CONTINENT": "North America", "REGION_UN": "Americas", "SUBREGION": "Caribbean", "NAME_EN": "Aruba" }, "geometry": { "type": "Point", "coordinates": [ -69.974200750465471, 12.516935269106378 ] } },
{ "type": "Feature", "properties": { "ISO_A2": "BS", "ISO_A3": "BHS", "CONTINENT": "North America", "REGION_UN": "Americas", "SUBREGION": "Caribbean", "NAME_EN": "The Bahamas" }, "geometry": { "type": "Point", "coordinates": [ -76.551252212607693, 24.222809281587779 ] } },
{ "type": "Feature", "properties": { "ISO_A2": "TC", "ISO_A3": "TCA", "CONTINENT": "North America", "REGION_UN": "Americas", "SUBREGION": "Caribbean", "NAME_EN": "Turks and Caicos Islands" }, "geometry": { "type": "Point", "coordinates": [ -71.873306601707114, 21.780045376481624 ] } },
{ "type": "Feature", "properties": { "ISO_A2": "JP", "ISO_A3": "JPN", "CONTINENT": "Asia", "REGION_UN": "Asia", "SUBREGION": "Eastern Asia", "NAME_EN": "Japan" }, "geometry": { "type": "Point", "coordinates": [ 137.97834761002656, 37.551177393729532 ] } },
{ "type": "Feature", "properties": { "ISO_A2": "PM", "ISO_A3": "SPM", "CONTINENT": "North America", "REGION_UN": "Americas", "SUBREGION": "Northern America", "NAME_EN": "Saint Pierre and Miquelon" }, "geometry": { "type": "Point", "coordinates": [ -56.307813542401554, 46.930457949651547 ] } },
{ "type": "Feature", "properties": { "ISO_A2": "IS", "ISO_A3": "ISL", "CONTINENT": "Europe", "REGION_UN": "Europe", "SUBREGION": "Northern Europe", "NAME_EN": "Iceland" }, "geometry": { "type": "Point", "coordinates": [ -18.596445927928322, 64.99831582051219 ] } },
{ "type": "Feature", "properties": { "ISO_A2": "PN", "ISO_A3": "PCN", "CONTINENT": "Oceania", "REGION_UN": "Oceania", "SUBREGION": "Polynesia", "NAME_EN": "Pitcairn Islands" }, "geometry": { "type": "Point", "coordinates": [ -128.479267054597017, -24.412769982768978 ] } },
{ "type": "Feature", "properties": { "ISO_A2": "PF", "ISO_A3": "PYF", "CONTINENT": "Oceania", "REGION_UN": "Oceania", "SUBREGION": "Polynesia", "NAME_EN": "French Polynesia" }, "geometry": { "type": "Point", "coordinates": [ -145.052040357455581, -15.188779593186961 ] } },
{ "type": "Feature", "properties": { "ISO_A2": "TF", "ISO_A3": "ATF", "CONTINENT": "Seven seas (open ocean)", "REGION_UN": "Seven seas (open ocean)", "SUBREGION": "Seven seas (open ocean)", "NAME_EN": "French Southern and Antarctic Lands" }, "geometry": { "type": "Point", "coordinates": [ 68.992134044325923, -49.065151471414055 ] } },
{ "type": "Feature", "properties": { "ISO_A2": "SC", "ISO_A3": "SYC", "CONTINENT": "Seven seas (open ocean)", "REGION_UN": "Africa", "SUBREGION": "Eastern Africa", "NAME_EN": "Seychelles" }, "geometry": { "type": "Point", "coordinates": [ 52.062291893094518, -6.489990485984245 ] } },
{ "type": "Feature", "properties": { "ISO_A2": "KI", "ISO_A3": "KIR", "CONTINENT": "Oceania", "REGION_UN": "Oceania", "SUBREGION": "Micronesia", "NAME_EN": "Kiribati" }, "geometry": { "type": "Point", "coordinates": [ -51.525325239217537, 0.615185709234168 ] } },
{ "type": "Feature", "properties": { "ISO_A2": "MH", "ISO_A3": "MHL", "CONTINENT": "Oceania", "REGION_UN": "Oceania", "SUBREGION": "Micronesia", "NAME_EN": "Marshall Islands" }, "geometry": { "type": "Point", "coordinates": [ 170.099527802160907, 7.114465330426036 ] } },
{ "type": "Feature", "properties": { "ISO_A2": "TT", "ISO_A3": "TTO", "CONTINENT": "North America", "REGION_UN": "Americas", "SUBREGION": "Caribbean", "NAME_EN": "Trinidad and Tobago" }, "geometry": { "type": "Point", "coordinates": [ -61.258449839293178, 10.468829856749517 ] } },
{ "type": "Feature", "properties": { "ISO_A2": "GD", "ISO_A3": "GRD", "CONTINENT": "North America", "REGION_UN": "Americas", "SUBREGION": "Caribbean", "NAME_EN": "Grenada" }, "geometry": { "type": "Point", "coordinates": [ -61.656682383467746, 12.153372404049788 ] } },
{ "type": "Feature", "properties": { "ISO_A2": "VC", "ISO_A3": "VCT", "CONTINENT": "North America", "REGION_UN": "Americas", "SUBREGION": "Caribbean", "NAME_EN": "Saint Vincent and the Grenadines" }, "geometry": { "type": "Point", "coordinates": [ -61.203353266292844, 13.216215919250017 ] } },
{ "type": "Feature", "properties": { "ISO_A2": "BB", "ISO_A3": "BRB", "CONTINENT": "North America", "REGION_UN": "Americas", "SUBREGION": "Caribbean", "NAME_EN": "Barbados" }, "geometry": { "type": "Point", "coordinates": [ -59.561217748230774, 13.18105382676983 ] } },
{ "type": "Feature", "properties": { "ISO_A2": "LC", "ISO_A3": "LCA", "CONTINENT": "North America", "REGION_UN": "Americas", "SUBREGION": "Caribbean", "NAME_EN": "Saint Lucia" }, "geometry": { "type": "Point", "coordinates": [ -60.970316531197568, 13.902670546913855 ] } },
{ "type": "Feature", "properties": { "ISO_A2": "DM", "ISO_A3": "DMA", "CONTINENT": "North America", "REGION_UN": "Americas", "SUBREGION": "Caribbean", "NAME_EN": "Dominica" }, "geometry": { "type": "Point", "coordinates": [ -61.356917592073465, 15.436440485413268 ] } },
{ "type": "Feature", "properties": { "ISO_A2": "MS", "ISO_A3": "MSR", "CONTINENT": "North America", "REGION_UN": "Americas", "SUBREGION": "Caribbean", "NAME_EN": "Montserrat" }, "geometry": { "type": "Point", "coordinates": [ -62.187398782775119, 16.737523565001471 ] } },
{ "type": "Feature", "properties": { "ISO_A2": "AG", "ISO_A3": "ATG", "CONTINENT": "North America", "REGION_UN": "Americas", "SUBREGION": "Caribbean", "NAME_EN": "Antigua and Barbuda" }, "geometry": { "type": "Point", "coordinates": [ -61.791732462191597, 17.284380235547424 ] } },
{ "type": "Feature", "properties": { "ISO_A2": "KN", "ISO_A3": "KNA", "CONTINENT": "North America", "REGION_UN": "Americas", "SUBREGION": "Caribbean", "NAME_EN": "Saint Kitts and Nevis" }, "geometry": { "type": "Point", "coordinates": [ -62.69854544620199, 17.271042252494595 ] } },
{ "type": "Feature", "properties": { "ISO_A2": "VI", "ISO_A3": "VIR", "CONTINENT": "North America", "REGION_UN": "Americas", "SUBREGION": "Caribbean", "NAME_EN": "United States Virgin Islands" }, "geometry": { "type": "Point", "coordinates": [ -64.79765445036017, 17.980545607271935 ] } },
{ "type": "Feature", "properties": { "ISO_A2": "BL", "ISO_A3": "BLM", "CONTINENT": "North America", "REGION_UN": "Americas", "SUBREGION": "Caribbean", "NAME_EN": "Saint-Barth√©lemy" }, "geometry": { "type": "Point", "coordinates": [ -62.832619625066393, 17.90558452182805 ] } },
{ "type": "Feature", "properties": { "ISO_A2": "PR", "ISO_A3": "PRI", "CONTINENT": "North America", "REGION_UN": "Americas", "SUBREGION": "Caribbean", "NAME_EN": "Puerto Rico" }, "geometry": { "type": "Point", "coordinates": [ -66.467600293007919, 18.223816465365459 ] } },
{ "type": "Feature", "properties": { "ISO_A2": "AI", "ISO_A3": "AIA", "CONTINENT": "North America", "REGION_UN": "Americas", "SUBREGION": "Caribbean", "NAME_EN": "Anguilla" }, "geometry": { "type": "Point", "coordinates": [ -63.058571246510759, 18.225692510780306 ] } },
{ "type": "Feature", "properties": { "ISO_A2": "VG", "ISO_A3": "VGB", "CONTINENT": "North America", "REGION_UN": "Americas", "SUBREGION": "Caribbean", "NAME_EN": "British Virgin Islands" }, "geometry": { "type": "Point", "coordinates": [ -64.502863194159261, 18.509884128890967 ] } },
{ "type": "Feature", "properties": { "ISO_A2": "JM", "ISO_A3": "JAM", "CONTINENT": "North America", "REGION_UN": "Americas", "SUBREGION": "Caribbean", "NAME_EN": "Jamaica" }, "geometry": { "type": "Point", "coordinates": [ -77.31881046592126, 18.155226388428744 ] } },
{ "type": "Feature", "properties": { "ISO_A2": "KY", "ISO_A3": "CYM", "CONTINENT": "North America", "REGION_UN": "Americas", "SUBREGION": "Caribbean", "NAME_EN": "Cayman Islands" }, "geometry": { "type": "Point", "coordinates": [ -80.877025890843612, 19.426331163775004 ] } },
{ "type": "Feature", "properties": { "ISO_A2": "BM", "ISO_A3": "BMU", "CONTINENT": "North America", "REGION_UN": "Americas", "SUBREGION": "Northern America", "NAME_EN": "Bermuda" }, "geometry": { "type": "Point", "coordinates": [ -64.763491383369285, 32.310136577650781 ] } },
{ "type": "Feature", "properties": { "ISO_A2": "HM", "ISO_A3": "HMD", "CONTINENT": "Seven seas (open ocean)", "REGION_UN": "Seven seas (open ocean)", "SUBREGION": "Seven seas (open ocean)", "NAME_EN": "Heard Island and McDonald Islands" }, "geometry": { "type": "Point", "coordinates": [ 73.50521018895175, -53.088817025752917 ] } },
{ "type": "Feature", "properties": { "ISO_A2": "SH", "ISO_A3": "SHN", "CONTINENT": "Seven seas (open ocean)", "REGION_UN": "Africa", "SUBREGION": "Western Africa", "NAME_EN": "Saint Helena" }, "geometry": { "type": "Point", "coordinates": [ -10.138417838953872, -24.911350246848624 ] } },
{ "type": "Feature", "properties": { "ISO_A2": "MU", "ISO_A3": "MUS", "CONTINENT": "Seven seas (open ocean)", "REGION_UN": "Africa", "SUBREGION": "Eastern Africa", "NAME_EN": "Mauritius" }, "geometry": { "type": "Point", "coordinates": [ 57.849700167148882, -20.185543869845255 ] } },
{ "type": "Feature", "properties": { "ISO_A2": "KM", "ISO_A3": "COM", "CONTINENT": "Africa", "REGION_UN": "Africa", "SUBREGION": "Eastern Africa", "NAME_EN": "Comoros" }, "geometry": { "type": "Point", "coordinates": [ 43.680163186693683, -11.884216211563347 ] } },
{ "type": "Feature", "properties": { "ISO_A2": "ST", "ISO_A3": "STP", "CONTINENT": "Africa", "REGION_UN": "Africa", "SUBREGION": "Middle Africa", "NAME_EN": "S√£o Tom√© and Pr√≠ncipe" }, "geometry": { "type": "Point", "coordinates": [ 6.726442874228391, 0.444260037836462 ] } },
{ "type": "Feature", "properties": { "ISO_A2": "CV", "ISO_A3": "CPV", "CONTINENT": "Africa", "REGION_UN": "Africa", "SUBREGION": "Western Africa", "NAME_EN": "Cape Verde" }, "geometry": { "type": "Point", "coordinates": [ -23.967239766210415, 15.936140242911787 ] } },
{ "type": "Feature", "properties": { "ISO_A2": "MT", "ISO_A3": "MLT", "CONTINENT": "Europe", "REGION_UN": "Europe", "SUBREGION": "Southern Europe", "NAME_EN": "Malta" }, "geometry": { "type": "Point", "coordinates": [ 14.403754031263249, 35.921026987236928 ] } },
{ "type": "Feature", "properties": { "ISO_A2": "JE", "ISO_A3": "JEY", "CONTINENT": "Europe", "REGION_UN": "Europe", "SUBREGION": "Northern Europe", "NAME_EN": "Jersey" }, "geometry": { "type": "Point", "coordinates": [ -2.127430814276983, 49.221064210980543 ] } },
{ "type": "Feature", "properties": { "ISO_A2": "GG", "ISO_A3": "GGY", "CONTINENT": "Europe", "REGION_UN": "Europe", "SUBREGION": "Northern Europe", "NAME_EN": "Guernsey" }, "geometry": { "type": "Point", "coordinates": [ -2.530480022967696, 49.484372922718727 ] } },
{ "type": "Feature", "properties": { "ISO_A2": "IM", "ISO_A3": "IMN", "CONTINENT": "Europe", "REGION_UN": "Europe", "SUBREGION": "Northern Europe", "NAME_EN": "Isle of Man" }, "geometry": { "type": "Point", "coordinates": [ -4.533695083013651, 54.229101900394625 ] } },
{ "type": "Feature", "properties": { "ISO_A2": "FO", "ISO_A3": "FRO", "CONTINENT": "Europe", "REGION_UN": "Europe", "SUBREGION": "Northern Europe", "NAME_EN": "Faroe Islands" }, "geometry": { "type": "Point", "coordinates": [ -6.870554776066855, 62.074027254272224 ] } },
{ "type": "Feature", "properties": { "ISO_A2": "IO", "ISO_A3": "IOT", "CONTINENT": "Seven seas (open ocean)", "REGION_UN": "Seven seas (open ocean)", "SUBREGION": "Seven seas (open ocean)", "NAME_EN": "British Indian Ocean Territory" }, "geometry": { "type": "Point", "coordinates": [ 72.298814821632675, -7.144331222738015 ] } },
{ "type": "Feature", "properties": { "ISO_A2": "SG", "ISO_A3": "SGP", "CONTINENT": "Asia", "REGION_UN": "Asia", "SUBREGION": "South-Eastern Asia", "NAME_EN": "Singapore" }, "geometry": { "type": "Point", "coordinates": [ 103.813467658105537, 1.35892102031202 ] } },
{ "type": "Feature", "properties": { "ISO_A2": "NF", "ISO_A3": "NFK", "CONTINENT": "Oceania", "REGION_UN": "Oceania", "SUBREGION": "Australia and New Zealand", "NAME_EN": "Norfolk Island" }, "geometry": { "type": "Point", "coordinates": [ 167.955169332559194, -29.034975103142472 ] } },
{ "type": "Feature", "properties": { "ISO_A2": "CK", "ISO_A3": "COK", "CONTINENT": "Oceania", "REGION_UN": "Oceania", "SUBREGION": "Polynesia", "NAME_EN": "Cook Islands" }, "geometry": { "type": "Point", "coordinates": [ -158.791213603778914, -19.814508547715452 ] } },
{ "type": "Feature", "properties": { "ISO_A2": "TO", "ISO_A3": "TON", "CONTINENT": "Oceania", "REGION_UN": "Oceania", "SUBREGION": "Polynesia", "NAME_EN": "Tonga" }, "geometry": { "type": "Point", "coordinates": [ -174.868512272504887, -20.066559736651168 ] } },
{ "type": "Feature", "properties": { "ISO_A2": "WF", "ISO_A3": "WLF", "CONTINENT": "Oceania", "REGION_UN": "Oceania", "SUBREGION": "Polynesia", "NAME_EN": "Wallis and Futuna" }, "geometry": { "type": "Point", "coordinates": [ -177.058996021397689, -13.738101959909512 ] } },
{ "type": "Feature", "properties": { "ISO_A2": "WS", "ISO_A3": "WSM", "CONTINENT": "Oceania", "REGION_UN": "Oceania", "SUBREGION": "Polynesia", "NAME_EN": "Samoa" }, "geometry": { "type": "Point", "coordinates": [ -172.161249298984785, -13.754595654070085 ] } },
{ "type": "Feature", "properties": { "ISO_A2": "SB", "ISO_A3": "SLB", "CONTINENT": "Oceania", "REGION_UN": "Oceania", "SUBREGION": "Melanesia", "NAME_EN": "Solomon Islands" }, "geometry": { "type": "Point", "coordinates": [ 159.638094462815445, -8.909583205375919 ] } },
{ "type": "Feature", "properties": { "ISO_A2": "TV", "ISO_A3": "TUV", "CONTINENT": "Oceania", "REGION_UN": "Oceania", "SUBREGION": "Polynesia", "NAME_EN": "Tuvalu" }, "geometry": { "type": "Point", "coordinates": [ 178.520353151916709, -7.759069082894267 ] } },
{ "type": "Feature", "properties": { "ISO_A2": "MV", "ISO_A3": "MDV", "CONTINENT": "Seven seas (open ocean)", "REGION_UN": "Asia", "SUBREGION": "Southern Asia", "NAME_EN": "Maldives" }, "geometry": { "type": "Point", "coordinates": [ 73.302277198751113, 3.827779803224809 ] } },
{ "type": "Feature", "properties": { "ISO_A2": "NR", "ISO_A3": "NRU", "CONTINENT": "Oceania", "REGION_UN": "Oceania", "SUBREGION": "Micronesia", "NAME_EN": "Nauru" }, "geometry": { "type": "Point", "coordinates": [ 166.933131929431255, -0.520782884754556 ] } },
{ "type": "Feature", "properties": { "ISO_A2": "FM", "ISO_A3": "FSM", "CONTINENT": "Oceania", "REGION_UN": "Oceania", "SUBREGION": "Micronesia", "NAME_EN": "Federated States of Micronesia" }, "geometry": { "type": "Point", "coordinates": [ 155.260633534451216, 6.967281080610225 ] } },
{ "type": "Feature", "properties": { "ISO_A2": "GS", "ISO_A3": "SGS", "CONTINENT": "Seven seas (open ocean)", "REGION_UN": "Seven seas (open ocean)", "SUBREGION": "Seven seas (open ocean)", "NAME_EN": "South Georgia and the South Sandwich Islands" }, "geometry": { "type": "Point", "coordinates": [ -35.882316614506806, -54.679219153064246 ] } },
{ "type": "Feature", "properties": { "ISO_A2": "FK", "ISO_A3": "FLK", "CONTINENT": "South America", "REGION_UN": "Americas", "SUBREGION": "South America", "NAME_EN": "Falkland Islands" }, "geometry": { "type": "Point", "coordinates": [ -59.37610280622286, -51.733307276038104 ] } },
{ "type": "Feature", "properties": { "ISO_A2": "VU", "ISO_A3": "VUT", "CONTINENT": "Oceania", "REGION_UN": "Oceania", "SUBREGION": "Melanesia", "NAME_EN": "Vanuatu" }, "geometry": { "type": "Point", "coordinates": [ 167.700844140924318, -16.201267919209851 ] } },
{ "type": "Feature", "properties": { "ISO_A2": "NU", "ISO_A3": "NIU", "CONTINENT": "Oceania", "REGION_UN": "Oceania", "SUBREGION": "Polynesia", "NAME_EN": "Niue" }, "geometry": { "type": "Point", "coordinates": [ -169.869346042029946, -19.048919755888488 ] } },
{ "type": "Feature", "properties": { "ISO_A2": "AS", "ISO_A3": "ASM", "CONTINENT": "Oceania", "REGION_UN": "Oceania", "SUBREGION": "Polynesia", "NAME_EN": "American Samoa" }, "geometry": { "type": "Point", "coordinates": [ -170.398920923112911, -14.254943514062573 ] } },
{ "type": "Feature", "properties": { "ISO_A2": "PW", "ISO_A3": "PLW", "CONTINENT": "Oceania", "REGION_UN": "Oceania", "SUBREGION": "Micronesia", "NAME_EN": "Palau" }, "geometry": { "type": "Point", "coordinates": [ 134.348033337964154, 7.197635973438231 ] } },
{ "type": "Feature", "properties": { "ISO_A2": "GU", "ISO_A3": "GUM", "CONTINENT": "Oceania", "REGION_UN": "Oceania", "SUBREGION": "Micronesia", "NAME_EN": "Guam" }, "geometry": { "type": "Point", "coordinates": [ 144.771939120217951, 13.443793017383609 ] } },
{ "type": "Feature", "properties": { "ISO_A2": "MP", "ISO_A3": "MNP", "CONTINENT": "Oceania", "REGION_UN": "Oceania", "SUBREGION": "Micronesia", "NAME_EN": "Northern Mariana Islands" }, "geometry": { "type": "Point", "coordinates": [ 145.599955006177481, 16.250859761281639 ] } },
{ "type": "Feature", "properties": { "ISO_A2": "BH", "ISO_A3": "BHR", "CONTINENT": "Asia", "REGION_UN": "Asia", "SUBREGION": "Western Asia", "NAME_EN": "Bahrain" }, "geometry": { "type": "Point", "coordinates": [ 50.546619347577668, 26.052784294496046 ] } },
{ "type": "Feature", "properties": { "ISO_A2": "-99", "ISO_A3": "-99", "CONTINENT": "Seven seas (open ocean)", "REGION_UN": "Americas", "SUBREGION": "Central America", "NAME_EN": "Clipperton Island" }, "geometry": { "type": "Point", "coordinates": [ -109.221264242309445, 10.297389383607047 ] } },
{ "type": "Feature", "properties": { "ISO_A2": "MO", "ISO_A3": "MAC", "CONTINENT": "Asia", "REGION_UN": "Asia", "SUBREGION": "Eastern Asia", "NAME_EN": "Macau" }, "geometry": { "type": "Point", "coordinates": [ 113.550196864789598, 22.157785198568398 ] } },
{ "type": "Feature", "properties": { "ISO_A2": "NL", "ISO_A3": "NLD", "CONTINENT": "Europe", "REGION_UN": "Europe", "SUBREGION": "Western Europe", "NAME_EN": "Netherlands" }, "geometry": { "type": "Point", "coordinates": [ -68.287610098429198, 12.186490332603883 ] } },
{ "type": "Feature", "properties": { "ISO_A2": "NL", "ISO_A3": "NLD", "CONTINENT": "Europe", "REGION_UN": "Europe", "SUBREGION": "Western Europe", "NAME_EN": "Netherlands" }, "geometry": { "type": "Point", "coordinates": [ -62.974112943888393, 17.489196121226239 ] } },
{ "type": "Feature", "properties": { "ISO_A2": "NL", "ISO_A3": "NLD", "CONTINENT": "Europe", "REGION_UN": "Europe", "SUBREGION": "Western Europe", "NAME_EN": "Netherlands" }, "geometry": { "type": "Point", "coordinates": [ -63.238013169455009, 17.630503485386257 ] } },
{ "type": "Feature", "properties": { "ISO_A2": "NL", "ISO_A3": "NLD", "CONTINENT": "Europe", "REGION_UN": "Europe", "SUBREGION": "Western Europe", "NAME_EN": "Netherlands" }, "geometry": { "type": "Point", "coordinates": [ 5.584258739643221, 52.268030902681808 ] } },
{ "type": "Feature", "properties": { "ISO_A2": "-99", "ISO_A3": "-99", "CONTINENT": "Asia", "REGION_UN": "Seven seas (open ocean)", "SUBREGION": "Seven seas (open ocean)", "NAME_EN": "Australian Indian Ocean Territories" }, "geometry": { "type": "Point", "coordinates": [ 96.867296947673694, -12.175900581478057 ] } },
{ "type": "Feature", "properties": { "ISO_A2": "-99", "ISO_A3": "-99", "CONTINENT": "Asia", "REGION_UN": "Seven seas (open ocean)", "SUBREGION": "Seven seas (open ocean)", "NAME_EN": "Australian Indian Ocean Territories" }, "geometry": { "type": "Point", "coordinates": [ 105.662522712536187, -10.492523352257422 ] } },
{ "type": "Feature", "properties": { "ISO_A2": "UM", "ISO_A3": "UMI", "CONTINENT": "North America", "REGION_UN": "Seven seas (open ocean)", "SUBREGION": "Seven seas (open ocean)", "NAME_EN": "United States Minor Outlying Islands" }, "geometry": { "type": "Point", "coordinates": [ -169.534996780423342, 16.737093904020419 ] } },
{ "type": "Feature", "properties": { "ISO_A2": "UM", "ISO_A3": "UMI", "CONTINENT": "North America", "REGION_UN": "Seven seas (open ocean)", "SUBREGION": "Seven seas (open ocean)", "NAME_EN": "United States Minor Outlying Islands" }, "geometry": { "type": "Point", "coordinates": [ -160.019757027161745, -0.37963143679013 ] } },
{ "type": "Feature", "properties": { "ISO_A2": "UM", "ISO_A3": "UMI", "CONTINENT": "North America", "REGION_UN": "Seven seas (open ocean)", "SUBREGION": "Seven seas (open ocean)", "NAME_EN": "United States Minor Outlying Islands" }, "geometry": { "type": "Point", "coordinates": [ -176.474652240966748, 0.201863965447182 ] } },
{ "type": "Feature", "properties": { "ISO_A2": "UM", "ISO_A3": "UMI", "CONTINENT": "North America", "REGION_UN": "Seven seas (open ocean)", "SUBREGION": "Seven seas (open ocean)", "NAME_EN": "United States Minor Outlying Islands" }, "geometry": { "type": "Point", "coordinates": [ -176.637833160168128, 0.799953958492509 ] } },
{ "type": "Feature", "properties": { "ISO_A2": "UM", "ISO_A3": "UMI", "CONTINENT": "North America", "REGION_UN": "Seven seas (open ocean)", "SUBREGION": "Seven seas (open ocean)", "NAME_EN": "United States Minor Outlying Islands" }, "geometry": { "type": "Point", "coordinates": [ 166.641539067554135, 19.287155664237162 ] } },
{ "type": "Feature", "properties": { "ISO_A2": "UM", "ISO_A3": "UMI", "CONTINENT": "North America", "REGION_UN": "Seven seas (open ocean)", "SUBREGION": "Seven seas (open ocean)", "NAME_EN": "United States Minor Outlying Islands" }, "geometry": { "type": "Point", "coordinates": [ -177.367664269264395, 28.207231549310873 ] } },
{ "type": "Feature", "properties": { "ISO_A2": "UM", "ISO_A3": "UMI", "CONTINENT": "North America", "REGION_UN": "Seven seas (open ocean)", "SUBREGION": "Seven seas (open ocean)", "NAME_EN": "United States Minor Outlying Islands" }, "geometry": { "type": "Point", "coordinates": [ -75.014658228121192, 18.407050019255706 ] } },
{ "type": "Feature", "properties": { "ISO_A2": "UM", "ISO_A3": "UMI", "CONTINENT": "North America", "REGION_UN": "Seven seas (open ocean)", "SUBREGION": "Seven seas (open ocean)", "NAME_EN": "United States Minor Outlying Islands" }, "geometry": { "type": "Point", "coordinates": [ -162.076545548800567, 5.880756834593249 ] } },
{ "type": "Feature", "properties": { "ISO_A2": "UM", "ISO_A3": "UMI", "CONTINENT": "North America", "REGION_UN": "Seven seas (open ocean)", "SUBREGION": "Seven seas (open ocean)", "NAME_EN": "United States Minor Outlying Islands" }, "geometry": { "type": "Point", "coordinates": [ -162.392730272683906, 6.43768951980553 ] } },
{ "type": "Feature", "properties": { "ISO_A2": "NZ", "ISO_A3": "NZL", "CONTINENT": "Oceania", "REGION_UN": "Oceania", "SUBREGION": "Australia and New Zealand", "NAME_EN": "New Zealand" }, "geometry": { "type": "Point", "coordinates": [ -171.81627581724473, -8.96995137146984 ] } },
{ "type": "Feature", "properties": { "ISO_A2": "NZ", "ISO_A3": "NZL", "CONTINENT": "Oceania", "REGION_UN": "Oceania", "SUBREGION": "Australia and New Zealand", "NAME_EN": "New Zealand" }, "geometry": { "type": "Point", "coordinates": [ 171.47479227444046, -41.829914775737684 ] } }
]
}
